#cP2023 10 28  0  0  0.00000000      96 ORBIT IGS20 HLM  IGS
## 2285 518400.00000000   900.00000000 60245 0.0000000000000
+   32   G01G02G03G04G05G06G07G08G09G10G11G12G13G14G15G16G17
+        G18G19G20G21G22G23G24G25G26G27G28G29G30G31G32  0  0
+          0  0  0  0  0  0  0  0  0  0  0  0  0  0  0  0  0
+          0  0  0  0  0  0  0  0  0  0  0  0  0  0  0  0  0
+          0  0  0  0  0  0  0  0  0  0  0  0  0  0  0  0  0
++         3  2  2  2  2  2  2  2  2  2  2  2  2  2  2  2  2
++         2  2  2  2  2  2  2  2  2  2  2  2  2  2  2  0  0
++         0  0  0  0  0  0  0  0  0  0  0  0  0  0  0  0  0
++         0  0  0  0  0  0  0  0  0  0  0  0  0  0  0  0  0
++         0  0  0  0  0  0  0  0  0  0  0  0  0  0  0  0  0
%c G  cc GPS ccc cccc cccc cccc cccc ccccc ccccc ccccc ccccc
%c cc cc ccc ccc cccc cccc cccc cccc ccccc ccccc ccccc ccccc
%f  1.2500000  1.025000000  0.00000000000  0.000000000000000
%f  0.0000000  0.000000000  0.00000000000  0.000000000000000
%i    0    0    0    0      0      0      0      0         0
%i    0    0    0    0      0      0      0      0         0
/* RAPID ORBIT COMBINATION FROM WEIGHTED AVERAGE OF:        
/* cod emr esa gfz grg jgx jpl ngs sio usn whu              
/* REFERENCED TO IGS TIME (IGST) AND TO WEIGHTED MEAN POLE: 
/* PCV:IGS20      OL/AL:FES2014b NONE     Y  ORB:CMB CLK:CMB
*  2023 10 28 11 15  0.00000000
PG01    -82.852530  15110.096673 -22147.681132    163.345275  8  3  3 131       
PG02  -6862.454017  16724.632828 -18889.581629   -536.369804  5  4  4 115       
PG03   8750.468785  20981.638750 -13968.897953    -51.227169  4  6  6 110       
PG04    375.812076  24658.546415   9697.790860    197.067550  5  7  6  96       
PG05   4338.827665 -15317.251422  21064.363759   -148.214735  5  3    101       
PG06  25842.285827  -5738.222090  -2671.459579    520.244800  7  5  5 103       
PG07  17756.100859   8448.672559  18543.711654     28.464463  5  6  3 100       
PG08  -5077.258335  25842.630038   -127.867707   -149.340793  7  2  2  99       
PG09   8565.283029  18284.207572  17140.669768    -19.607316  5  3  4 102       
PG10 -21656.625535  -8124.691416 -13160.601056    -59.127939  7  5  2  82       
PG11  21667.992425 -12134.466588   9361.965912   -435.233085  8  6  6  96       
PG12  -5210.228320 -21240.188307 -15400.309123   -440.805551  5  2  6 109       
PG13  13420.405890 -21635.385136   6965.036119    589.030529  3  3  3 102       
PG14  21871.546644  11099.626505 -10384.893652    226.966670 11  6  6  89       
PG15   1002.867891 -26395.120861  -1547.249038     91.507644  5  4  6  94       
PG16 -10878.387054  10329.062665  21597.992156   -431.795591  6  6  4 118       
PG17  14512.094129   2969.396248 -21612.646221    723.651058  6  4  3 112       
PG18 -19002.827882  -6831.143329  17358.437499   -462.395190  7  7  7 103       
PG19  16533.996123  -5892.561746 -20021.021840    391.095929  7  2  5 120       
PG20  15131.190562  -7570.866910  20474.583384    404.531214  7  6  5 107       
PG21  -9793.636785  16826.923184 -17112.204838    145.707871  3  4  5 114       
PG22  19998.674885   5816.807625 -15865.031643     94.495633  6  2  4 110       
PG23 -20759.336166 -16628.852765  -1817.784568     89.650866  7  6  5 102       
PG24   4157.271423 -17510.489139 -19797.194574   -357.421142  4  6  4 113       
PG25 -16606.847414 -20272.820215  -5454.113811    474.821452  6  6  4  97       
PG26 -18456.783061   3083.868413  18848.723909    220.426109  6  5  5 109       
PG27 -12698.439413  19853.333290  11568.512795    -61.798798  7  5  7 105       
PG28 -25596.314752   5187.872697  -4865.957493    -34.133155 10  6  4 104       
PG29  -6462.671663 -18913.684233  17395.650441   -610.209791     4  2 108       
PG30  24371.326411   1113.534515  10936.401721   -474.147742  5  4  6  80       
PG31 -24524.745856   9888.703055   4067.706369   -225.150882  7  6  4  98       
PG32 -15593.351607   1712.265847 -21222.143748   -578.647534  6  6  5 111       
*  2023 10 28 11 30  0.00000000
PG01  -2403.765328  15801.943398 -21485.666314    163.345025  8  3  3 128       
PG02  -8911.748266  17455.758187 -17333.109996   -536.365561  5  3  5 112       
PG03   7391.675322  19969.694184 -16088.703250    -51.205620  4  6  6 112       
PG04    -74.766139  25539.820456   7051.207385    197.077148  5  7  6  85       
PG05   6310.933614 -13814.937243  21601.564709   -148.216488  5  4  1  97       
PG06  25442.481841  -5435.705177  -5528.172925    520.236626  6  5  5 101       
PG07  15802.847132   9220.930980  19886.196818     28.455468  5  6  4 104       
PG08  -5347.677025  25635.987147   2737.290323   -149.340554  7  2  3  98       
PG09   8066.872477  20097.121476  15254.051012    -19.597437  6  3  3  98       
PG10 -22599.471382  -9144.059292 -10745.708812    -59.129494  7  5  2  79       
PG11  22612.026074 -12169.754952   6693.915836   -435.248316  8  7  6  91       
PG12  -3816.600689 -20057.347673 -17304.452546   -440.809244  5  3  6 107       
PG13  13318.042963 -20634.444652   9633.729494    589.034301  4  3  3  85       
PG14  22464.912305  11993.262383  -7829.768251    226.976523 11  6  6  93       
PG15   1353.088996 -26342.798540   1265.542996     91.510615  5  4  5  93       
PG16 -12635.539604   8508.467586  21477.212438   -431.789875  6  5  5 115       
PG17  13853.870531   5445.617918 -21552.767576    723.650782  6  4  2 106       
PG18 -17068.437617  -7569.429848  18971.221721   -462.405378  7  6  7  88       
PG19  15936.115031  -3652.656548 -21053.950255    391.100734  7     5 110       
PG20  17019.029587  -6288.290401  19378.676304    404.529298  8  6  6  92       
PG21 -11687.359602  17415.451908 -15205.867012    145.707020  4  4  5 109       
PG22  21075.450646   7247.348653 -13780.093979     94.489570  7  1  4  88       
PG23 -20667.975169 -16809.474362   1057.084711     89.656280  7  6  5  94       
PG24   6175.953549 -18236.543038 -18511.230752   -357.429632  3  7  4 105       
PG25 -15890.136631 -19981.638245  -8135.248090    474.822916  6  6  4 106       
PG26 -20035.341488   1697.867118  17398.114785    220.423976  6  5  6  99       
PG27 -12640.596560  18328.318412  13902.716471    -61.803775  7  5  7 102       
PG28 -25018.027615   4709.470020  -7603.638251    -34.140001  9  6  4  98       
PG29  -5812.597911 -20694.595643  15489.395751   -610.209903  2  5  2 103       
PG30  23158.700857   1783.082514  13239.676879   -474.144303  5  4  6  82       
PG31 -24905.773169   9757.528913   1269.830995   -225.151269  8  6  3  90       
PG32 -15177.083464   -744.091286 -21592.139517   -578.651935  7  6  5 107       
*  2023 10 28 11 45  0.00000000
PG01  -4597.125160  16592.827969 -20462.922733    163.344795  7  2  4 120       
PG02 -10741.676789  18202.347986 -15464.637252   -536.361337  5  3  5 101       
PG03   5802.217676  18898.274202 -17935.602549    -51.184072  5  5  6 109       
PG04   -426.974866  26140.387657   4282.377043    197.086733  5  7  5  88       
PG05   8391.546960 -12396.245149  21760.571729   -148.217211  5  5  2  94       
PG06  24764.552096  -4992.468249  -8290.130279    520.228438  6  4  5  99       
PG07  13770.454590  10143.938009  20903.702770     28.446546  5  6  4 106       
PG08  -5593.999044  25120.174489   5554.090579   -149.341136  7  2  3  96       
PG09   7687.877119  21705.080597  13102.795340    -19.587423  6  3  3  92       
PG10 -23372.617839  -9933.890212  -8147.553467    -59.131251  7  4  2  64       
PG11  23261.518975 -12151.869279   3910.354429   -435.263522  9  7  5  99       
PG12  -2216.032767 -18819.814346 -18917.549734   -440.812749  5  3  6 105       
PG13  13189.362953 -19344.249168  12133.214906    589.038028  4  4  3 100       
PG14  22874.439294  12667.816705  -5141.118960    226.986354 10  6  6  82       
PG15   1712.094545 -25988.571123   4056.127168     91.514155  6  4  5  89       
PG16 -14455.029580   6809.080503  20977.174379   -431.784290  7  5  5 100       
PG17  13332.149988   7925.012160 -21106.302707    723.650821  6  4  3 101       
PG18 -15023.199954  -8472.265632  20259.675905   -462.415609  7  6  7  95       
PG19  15437.432721  -1294.113670 -21728.516413    391.105165  7     5 103       
PG20  18844.317541  -5168.311733  17948.801280    404.528295  8  6  6  98       
PG21 -13338.023708  17988.518584 -13017.581103    145.705780  5  4  5  95       
PG22  22037.470925   8445.049291 -11448.181815     94.483242  7     5  90       
PG23 -20324.953950 -16804.568703   3913.967712     89.661640  6  5  6  88       
PG24   8019.552156 -18985.904562 -16912.031428   -357.438145  4  7  4 103       
PG25 -14927.642942 -19551.394023 -10680.015851    474.824388  5  6  4  96       
PG26 -21526.411185    491.734603  15649.076901    220.421787  7  5  6 105       
PG27 -12628.584754  16550.403871  15989.066231    -61.808770  6  5  7 102       
PG28 -24189.629594   4077.795820 -10210.576150    -34.146880  9  6  5  79       
PG29  -5307.966177 -22281.212248  13314.610125   -610.210173  4  5  2 101       
PG30  21752.299478   2602.307476  15319.539351   -474.140814  5  4  6  99       
PG31 -24998.400514   9535.378925  -1549.388484   -225.151691  8  6  3  89       
PG32 -14885.250162  -3237.155717 -21583.951749   -578.656294  7  6  5  71       
EOF
